EARTHCARE               
1 59908U 24101A   24276.30640564  .00035491  00000+0  49019-3 0  9995
2 59908  96.9917  41.7045 0002318  88.1516 272.0006 15.57085474 19641
